GLOBALSTAR M075 [+]     
1 37192U 10054E   24103.26355431 -.00000103  00000+0  55121-5 0  9994
2 37192  51.9963  53.6024 0000582  63.9468  83.8987 12.62272163621956
GLOBALSTAR M073 [+]     
1 37193U 10054F   24103.81307815 -.00000073  00000+0  17180-3 0  9996
2 37193  52.0071 325.4237 0000869  94.1978  32.2586 12.62263631623488
GLOBALSTAR M083 [+]     
1 37739U 11033A   24103.65760878 -.00000062  00000+0  23504-3 0  9999
2 37739  51.9849 275.2152 0000722  84.4945 355.6251 12.62268414592487
GLOBALSTAR M088 [+]     
1 37740U 11033B   24103.55824736 -.00000071  00000+0  18072-3 0  9998
2 37740  51.9723 181.3709 0000457  92.6369  16.3151 12.62266872588011
GLOBALSTAR M081 [+]     
1 37743U 11033E   24103.18246882 -.00000113  00000+0 -50613-4 0  9996
2 37743  51.9944  99.2385 0000606  61.0102  19.1949 12.62264069589414
GLOBALSTAR M089 [+]     
1 37744U 11033F   24103.32001170 -.00000105  00000+0 -93471-5 0  9993
2 37744  51.9945  53.1291 0000628 104.2167  60.4489 12.62261733590275
